STARLINK-5193           
1 54095U 22136AW  23031.35484182  .00000993  00000+0  80461-4 0  9994
2 54095  53.2200  21.5234 0001209  93.5354 266.5776 15.08845450 15897
STARLINK-5188           
1 54096U 22136AX  23031.36589221  .00000182  00000+0  29501-4 0  9994
2 54096  53.2186  21.5985 0001047  85.1627 274.9485 15.08847234 15896
STARLINK-5197           
1 54097U 22136AY  23031.58334491 -.00948640  00000+0 -16785-1 0  9995
2 54097  53.2135 359.0692 0001340  82.4475  80.8635 15.52167085  1302
STARLINK-5217           
1 54098U 22136AZ  23031.35115823  .00000261  00000+0  34466-4 0  9992
2 54098  53.2185  21.5047 0001104  92.9272 267.1847 15.08842333 15893
STARLINK-5198           
1 54099U 22136BA  23031.41002494  .00000540  00000+0  51973-4 0  9991
2 54099  53.2174  21.1606 0000973 101.4855 258.6246 15.08845142 15906
STARLINK-5185           
1 54100U 22136BB  23031.35852971  .00000345  00000+0  39778-4 0  9992
2 54100  53.2189  21.5537 0001161  71.2774 288.8344 15.08845759 15892
STARLINK-5204           
1 54101U 22136BC  23031.58334491 -.00955754  00000+0 -61012-1 0  9998
2 54101  53.2148   5.5975 0001530  88.5595  45.6168 15.11198713  1307
STARLINK-5179           
1 54102U 22136BD  23031.34747185  .00001279  00000+0  98401-4 0  9998
2 54102  53.2183  21.4770 0001214  95.1871 264.9260 15.08846886 15892
STARLINK-5200           
1 54103U 22136BE  23031.66667824 -.00897360  00000+0 -33399-1 0  9993
2 54103  53.2131   1.3442 0001199 100.0196 272.6446 15.29824475 16679
STARLINK-5203           
1 54104U 22136BF  23031.29449716  .00004670  00000+0  37658-4 0  9998
2 54104  53.2133 359.7058 0002009  71.1242 288.9996 15.73215315 16199
COSMOS 2561             
1 54109U 22137A   23031.57614324  .00018776  00000+0  29247-3 0  9990
2 54109  97.0670 115.1227 0009126 244.4095 115.6217 15.53875649 15782
COSMOS 2562             
1 54110U 22137B   23031.35277692  .00030115  00000+0  35729-3 0  9994
2 54110  97.1841 116.8636 0011291 333.5102  26.5578 15.61080364 15806
ONEWEB-0490             
1 54113U 22138A   23031.58334491 -.00041974  00000+0 -10562+0 0  9995
2 54113  87.9338 190.0105 0002151  92.0911 277.8579 13.19559882  1301
ONEWEB-0492             
1 54114U 22138B   23031.45304954  .00000117  00000+0  26104-3 0  9998
2 54114  87.9324 190.0564 0001440  79.3170 280.8125 13.19726072 14246
ONEWEB-0495             
1 54115U 22138C   23031.66667824  .00000013  00000+0  00000+0 0  9998
2 54115  87.9350 189.9916 0001334  75.7033 305.0408 13.22491165 15122
ONEWEB-0497             
1 54116U 22138D   23031.44495351 -.00001527  00000+0 -38535-2 0  9999
2 54116  87.9362 190.0830 0002859  84.4593 275.6866 13.19593841 14214
ONEWEB-0499             
1 54117U 22138E   23031.66667824  .00000013  00000+0  00000+0 0  9990
2 54117  87.9456 189.9902 0002031  77.3589 337.9775 13.18552392 15121
ONEWEB-0500             
1 54118U 22138F   23031.66667824 -.00014912  00000+0 -37970-1 0  9994
2 54118  87.9297 190.0358 0001760  89.6256 331.6495 13.18593558 15138
ONEWEB-0501             
1 54119U 22138G   23031.46148460  .00002390  00000+0  59369-2 0  9995
2 54119  87.9341 190.0710 0001736  72.1698 287.9623 13.19712944 14218
ONEWEB-0502             
1 54120U 22138H   23031.44678145  .00015875  00000+0  39598-1 0  9996
2 54120  87.9366 190.0590 0001375 113.4685 246.6592 13.19646969 14239
ONEWEB-0503             
1 54121U 22138J   23031.66667824 -.00014578  00000+0 -36536-1 0  9993
2 54121  87.9363 190.0317 0002054  89.7421 285.0832 13.19666883 15122
ONEWEB-0504             
1 54122U 22138K   23031.49940041  .00003623  00000+0  90145-2 0  9994
2 54122  87.9346 190.0438 0001762  91.1733 268.9601 13.19713995 14249
ONEWEB-0505             
1 54123U 22138L   23031.66667824  .00000013  00000+0  00000+0 0  9997
2 54123  87.9347 190.0197 0001415  84.0933   3.1314 13.19897916 15114
ONEWEB-0506             
1 54124U 22138M   23031.46978762  .00000072  00000+0  14732-3 0  9998
2 54124  87.9380 190.0712 0002391  73.4058 286.7337 13.19527476 14214
ONEWEB-0507             
1 54125U 22138N   23031.66667824 -.00016692  00000+0 -42093-1 0  9991
2 54125  87.9368 190.0145 0001325  66.2551  53.8226 13.19256262 15151
ONEWEB-0508             
1 54126U 22138P   23031.58334491  .00006973  00000+0  17302-1 0  9998
2 54126  87.9373 190.0548 0001714  75.2788  23.1145 13.19996951  1307
ONEWEB-0509             
1 54127U 22138Q   23031.66667824 -.00016819  00000+0 -43254-1 0  9994
2 54127  87.9294 190.0313 0001868  91.5309 191.2214 13.17925663 15107
ONEWEB-0510             
1 54128U 22138R   23031.35724242  .00001100  00000+0  18390-3 0  9999
2 54128  86.9034 180.1376 0009416 320.2923  39.7602 14.68974762 14825
ONEWEB-0511             
1 54129U 22138S   23031.66667824 -.00031721  00000+0 -79525-1 0  9995
2 54129  87.9352 190.0283 0002060 100.8011 163.7729 13.19741574 15136
ONEWEB-0512             
1 54130U 22138T   23031.45098044  .00062856  00000+0  15627+0 0  9998
2 54130  87.9420 190.0754 0002348  88.9960 271.1442 13.19560708 14217
ONEWEB-0513             
1 54131U 22138U   23031.48017328  .00000026  00000+0  21197-4 0  9993
2 54131  87.6993 190.6281 0001771  94.7657 265.3690 13.41771534 14023
ONEWEB-0514             
1 54132U 22138V   23031.46777863 -.00000146  00000+0 -39689-3 0  9998
2 54132  87.9341 190.0671 0001589  99.5044 260.6268 13.19731069 14237
ONEWEB-0515             
1 54133U 22138W   23031.36506648  .00001185  00000+0  19866-3 0  9996
2 54133  86.9062 180.1119 0009461 310.6649  49.3744 14.68924682 14858
ONEWEB-0516             
1 54134U 22138X   23031.44250911  .00000079  00000+0  16480-3 0  9995
2 54134  87.9347 190.0728 0000811  87.6876 272.4349 13.19736108 14236
ONEWEB-0517             
1 54135U 22138Y   23031.66667824  .00000013  00000+0  00000+0 0  9990
2 54135  87.9332 190.0118 0001644  74.3860   8.2031 13.20754151 15138
ONEWEB-0518             
1 54136U 22138Z   23031.58334491 -.00042911  00000+0 -10756+0 0  9997
2 54136  87.9299 190.0163 0000967  82.6076 235.3647 13.19828409  1305
ONEWEB-0519             
1 54137U 22138AA  23031.46569038  .00000093  00000+0  19935-3 0  9997
2 54137  87.9343 190.0705 0002000  85.3757 274.7604 13.19727521 14244
ONEWEB-0520             
1 54138U 22138AB  23031.50147166  .00002128  00000+0  52819-2 0  9995
2 54138  87.9302 190.0668 0001650  79.6639 280.4680 13.19715852 14234
ONEWEB-0521             
1 54139U 22138AC  23031.45726025 -.00003602  00000+0 -90319-2 0  9994
2 54139  87.9329 190.0636 0002032  98.3954 261.7409 13.19743038 14173
ONEWEB-0522             
1 54140U 22138AD  23031.58334491 -.00094490  00000+0 -23832+0 0  9990
2 54140  87.9356 190.0499 0000583 130.1393 198.6257 13.19780908  1300
ONEWEB-0523             
1 54141U 22138AE  23031.35751764  .00002274  00000+0  38435-3 0  9998
2 54141  86.9042 180.1039 0009014 320.6500  39.4060 14.68961435 14855
ONEWEB-0524             
1 54142U 22138AF  23031.35871956  .00001204  00000+0  20193-3 0  9999
2 54142  86.9059 180.1134 0008350 323.6292  36.4356 14.68893732 14852
ONEWEB-0525             
1 54143U 22138AG  23031.66667824 -.00016719  00000+0 -41872-1 0  9995
2 54143  87.9347 190.0328 0001300 106.1610 178.4085 13.19722946 15125
ONEWEB-0526             
1 54144U 22138AH  23031.48885106  .00001000  00000+0  24686-2 0  9991
2 54144  87.9314 190.0636 0000581 183.9094 176.2034 13.19666358 14214
ONEWEB-0529             
1 54145U 22138AJ  23031.66667824 -.00016175  00000+0 -40500-1 0  9990
2 54145  87.9341 190.0329 0001517  74.5680  29.8627 13.19736999 15121
ONEWEB-0531             
1 54146U 22138AK  23031.15752331  .00000748  00000+0  12378-3 0  9994
2 54146  86.9050 180.1874 0009168 319.5436  40.5097 14.68965895 14825
ONEWEB-0535             
1 54147U 22138AL  23031.44885479 -.00008106  00000+0 -20285-1 0  9999
2 54147  87.9301 190.0737 0001390 104.2429 255.8858 13.19767700 14246
ONEWEB-0536             
1 54148U 22138AM  23031.36740461  .00001419  00000+0  23888-3 0  9994
2 54148  86.9023 180.1285 0008648 314.1518  45.8986 14.68884707 14857
GONETS-M 23             
1 54150U 22139A   23031.52702144  .00000010  00000+0  00000+0 0  9995
2 54150  82.5065  34.2597 0021683  34.3234 325.9255 12.42878525 12516
GONETS-M 24             
1 54151U 22139B   23031.49786300  .00000010  00000+0  00000+0 0  9998
2 54151  82.4984  34.1680 0016914  44.1787 316.0643 12.42876717 12514
GONETS-M 25             
1 54152U 22139C   23031.48254488  .00000010  00000+0  00000+0 0  9995
2 54152  82.5046  34.2036 0020601  42.9262 317.3426 12.42868346 12515
PROGRESS-MS 21          
1 54155U 22140A   23031.56487611  .00012511  00000+0  22433-3 0  9992
2 54155  51.6437 285.2443 0004771 296.1624 136.8391 15.50314228380604
STARLINK-5290           
1 54157U 22141A   23031.50208339  .00001415  00000+0  10697-3 0  9997
2 54157  53.2163  61.2567 0001099  99.3286 260.7831 15.08848913 14646
STARLINK-5297           
1 54158U 22141B   23031.50945816  .00001020  00000+0  82143-4 0  9994
2 54158  53.2169  61.2980 0001370  89.9878 270.1271 15.08841190 14649
STARLINK-5294           
1 54159U 22141C   23031.07981680  .00001011  00000+0  81612-4 0  9996
2 54159  53.2189  62.8963 0001122  88.3456 271.7664 15.08839363 14585
STARLINK-5233           
1 54160U 22141D   23031.26686120  .00000823  00000+0  10279-4 0  9991
2 54160  53.2150  32.6359 0001274  84.6217 275.4949 15.73203253 15023
STARLINK-5269           
1 54161U 22141E   23031.43953472  .00001128  00000+0  88962-4 0  9991
2 54161  53.2182  61.5759 0001307  97.9552 262.1588 15.08839645 14636
STARLINK-5273           
1 54162U 22141F   23031.49840194  .00000652  00000+0  59027-4 0  9995
2 54162  53.2167  61.2357 0001290  91.2335 268.8805 15.08844415 14645
STARLINK-5161           
1 54163U 22141G   23031.04670823  .00000196  00000+0  30425-4 0  9991
2 54163  53.2183  53.4064 0001328  86.9128 273.2016 15.08835678 14718
